{
  "type": "FeatureCollection",
  "features": [
    {
      "type": "Feature",
      "properties": {
        "norad_id": 33844,
        "name": "COSMOS 2251 DEB",
        "group": "cosmos-2251-debris",
        "lat": 20.715150803548628,
        "lon": 61.09817016910028,
        "alt_km": 759.7591668161531,
        "timestamp": "2025-12-11T13:55:02.559000+00:00",
        "meta_object_name": "COSMOS 2251 DEB",
        "meta_object_id": "1993-036CM",
        "meta_epoch": "2025-12-11T07:28:03.182880",
        "meta_mean_motion": 14.33712215,
        "meta_eccentricity": 0.00470681,
        "meta_inclination": 74.0672,
        "meta_ra_of_asc_node": 55.3869,
        "meta_arg_of_pericenter": 77.798,
        "meta_mean_anomaly": 357.8118,
        "meta_ephemeris_type": 0,
        "meta_classification_type": "U",
        "meta_norad_cat_id": 33844,
        "meta_element_set_no": 999,
        "meta_rev_at_epoch": 87705,
        "meta_bstar": 0.00060274506,
        "meta_mean_motion_dot": 1.669e-05,
        "meta_mean_motion_ddot": 0,
        "tle_line1": "1 33844U 93036CM  25345.31114795  .00001669  00000+0  60275-3 0  9997",
        "tle_line2": "2 33844  74.0672  55.3869 0047068  77.7980 357.8118 14.33712215877058"
      },
      "geometry": {
        "type": "Point",
        "coordinates": [
          61.09817016910028,
          20.715150803548628
        ]
      }
    },
    {
      "type": "Feature",
      "properties": {
        "norad_id": 33848,
        "name": "COSMOS 2251 DEB",
        "group": "cosmos-2251-debris",
        "lat": 20.345752426034924,
        "lon": 173.70644306575915,
        "alt_km": 751.0584976709888,
        "timestamp": "2025-12-11T13:55:02.559010+00:00",
        "meta_object_name": "COSMOS 2251 DEB",
        "meta_object_id": "1993-036CR",
        "meta_epoch": "2025-12-11T03:30:21.013056",
        "meta_mean_motion": 14.44043037,
        "meta_eccentricity": 0.00410504,
        "meta_inclination": 74.0324,
        "meta_ra_of_asc_node": 0.6079,
        "meta_arg_of_pericenter": 57.0287,
        "meta_mean_anomaly": 6.9092,
        "meta_ephemeris_type": 0,
        "meta_classification_type": "U",
        "meta_norad_cat_id": 33848,
        "meta_element_set_no": 999,
        "meta_rev_at_epoch": 87808,
        "meta_bstar": 0.0014902679,
        "meta_mean_motion_dot": 5.128e-05,
        "meta_mean_motion_ddot": 0,
        "tle_line1": "1 33848U 93036CR  25345.14607654  .00005128  00000+0  14903-2 0  9993",
        "tle_line2": "2 33848  74.0324   0.6079 0041050  57.0287   6.9092 14.44043037878086"
      },
      "geometry": {
        "type": "Point",
        "coordinates": [
          173.70644306575915,
          20.345752426034924
        ]
      }
    },
    {
      "type": "Feature",
      "properties": {
        "norad_id": 33892,
        "name": "COSMOS 2251 DEB",
        "group": "cosmos-2251-debris",
        "lat": 9.811574721959795,
        "lon": -78.70711133143975,
        "alt_km": 747.6854468205747,
        "timestamp": "2025-12-11T13:55:02.559020+00:00",
        "meta_object_name": "COSMOS 2251 DEB",
        "meta_object_id": "1993-036CV",
        "meta_epoch": "2025-12-10T19:17:11.840928",
        "meta_mean_motion": 14.2332678,
        "meta_eccentricity": 0.0112983,
        "meta_inclination": 73.8029,
        "meta_ra_of_asc_node": 105.5897,
        "meta_arg_of_pericenter": 137.1931,
        "meta_mean_anomaly": 15.653,
        "meta_ephemeris_type": 0,
        "meta_classification_type": "U",
        "meta_norad_cat_id": 33892,
        "meta_element_set_no": 999,
        "meta_rev_at_epoch": 86927,
        "meta_bstar": 0.0014084819,
        "meta_mean_motion_dot": 3.384e-05,
        "meta_mean_motion_ddot": 0,
        "tle_line1": "1 33892U 93036CV  25344.80360927  .00003384  00000+0  14085-2 0  9996",
        "tle_line2": "2 33892  73.8029 105.5897 0112983 137.1931  15.6530 14.23326780869278"
      },
      "geometry": {
        "type": "Point",
        "coordinates": [
          -78.70711133143975,
          9.811574721959795
        ]
      }
    },
    {
      "type": "Feature",
      "properties": {
        "norad_id": 33894,
        "name": "COSMOS 2251 DEB",
        "group": "cosmos-2251-debris",
        "lat": 37.50444586249733,
        "lon": 157.9564999893587,
        "alt_km": 1441.8255907274643,
        "timestamp": "2025-12-11T13:55:02.559031+00:00",
        "meta_object_name": "COSMOS 2251 DEB",
        "meta_object_id": "1993-036CX",
        "meta_epoch": "2025-12-11T00:25:45.175008",
        "meta_mean_motion": 13.21294448,
        "meta_eccentricity": 0.05795992,
        "meta_inclination": 73.7673,
        "meta_ra_of_asc_node": 351.7444,
        "meta_arg_of_pericenter": 271.3733,
        "meta_mean_anomaly": 82.1063,
        "meta_ephemeris_type": 0,
        "meta_classification_type": "U",
        "meta_norad_cat_id": 33894,
        "meta_element_set_no": 999,
        "meta_rev_at_epoch": 80685,
        "meta_bstar": 0.0026259477,
        "meta_mean_motion_dot": 2.594e-05,
        "meta_mean_motion_ddot": 0,
        "tle_line1": "1 33894U 93036CX  25345.01788397  .00002594  00000+0  26259-2 0  9995",
        "tle_line2": "2 33894  73.7673 351.7444 0579599 271.3733  82.1063 13.21294448806855"
      },
      "geometry": {
        "type": "Point",
        "coordinates": [
          157.9564999893587,
          37.50444586249733
        ]
      }
    },
    {
      "type": "Feature",
      "properties": {
        "norad_id": 33896,
        "name": "COSMOS 2251 DEB",
        "group": "cosmos-2251-debris",
        "lat": -67.74306777117242,
        "lon": 24.179479951649878,
        "alt_km": 818.80522816537,
        "timestamp": "2025-12-11T13:55:02.559041+00:00",
        "meta_object_name": "COSMOS 2251 DEB",
        "meta_object_id": "1993-036CZ",
        "meta_epoch": "2025-12-10T22:12:12.398400",
        "meta_mean_motion": 14.1903048,
        "meta_eccentricity": 0.0126349,
        "meta_inclination": 73.7663,
        "meta_ra_of_asc_node": 159.9773,
        "meta_arg_of_pericenter": 335.9788,
        "meta_mean_anomaly": 176.4978,
        "meta_ephemeris_type": 0,
        "meta_classification_type": "U",
        "meta_norad_cat_id": 33896,
        "meta_element_set_no": 999,
        "meta_rev_at_epoch": 86714,
        "meta_bstar": 0.00092271,
        "meta_mean_motion_dot": 2.059e-05,
        "meta_mean_motion_ddot": 0,
        "tle_line1": "1 33896U 93036CZ  25344.92514350  .00002059  00000+0  92271-3 0  9996",
        "tle_line2": "2 33896  73.7663 159.9773 0126349 335.9788 176.4978 14.19030480867140"
      },
      "geometry": {
        "type": "Point",
        "coordinates": [
          24.179479951649878,
          -67.74306777117242
        ]
      }
    },
    {
      "type": "Feature",
      "properties": {
        "norad_id": 33899,
        "name": "COSMOS 2251 DEB",
        "group": "cosmos-2251-debris",
        "lat": 71.57392147787967,
        "lon": -151.1744832115894,
        "alt_km": 657.0728210903162,
        "timestamp": "2025-12-11T13:55:02.559051+00:00",
        "meta_object_name": "COSMOS 2251 DEB",
        "meta_object_id": "1993-036DC",
        "meta_epoch": "2025-12-11T06:59:36.282624",
        "meta_mean_motion": 14.61168825,
        "meta_eccentricity": 0.00568798,
        "meta_inclination": 74.0537,
        "meta_ra_of_asc_node": 88.4918,
        "meta_arg_of_pericenter": 151.647,
        "meta_mean_anomaly": 231.2436,
        "meta_ephemeris_type": 0,
        "meta_classification_type": "U",
        "meta_norad_cat_id": 33899,
        "meta_element_set_no": 999,
        "meta_rev_at_epoch": 88818,
        "meta_bstar": 0.0019425292,
        "meta_mean_motion_dot": 9.769e-05,
        "meta_mean_motion_ddot": 0,
        "tle_line1": "1 33899U 93036DC  25345.29139216  .00009769  00000+0  19425-2 0  9998",
        "tle_line2": "2 33899  74.0537  88.4918 0056879 151.6470 231.2436 14.61168825888183"
      },
      "geometry": {
        "type": "Point",
        "coordinates": [
          -151.1744832115894,
          71.57392147787967
        ]
      }
    },
    {
      "type": "Feature",
      "properties": {
        "norad_id": 33900,
        "name": "COSMOS 2251 DEB",
        "group": "cosmos-2251-debris",
        "lat": 31.484938980647286,
        "lon": 171.96522666737172,
        "alt_km": 663.4851984415882,
        "timestamp": "2025-12-11T13:55:02.559062+00:00",
        "meta_object_name": "COSMOS 2251 DEB",
        "meta_object_id": "1993-036DD",
        "meta_epoch": "2025-12-11T03:40:16.063680",
        "meta_mean_motion": 14.58337683,
        "meta_eccentricity": 0.00469386,
        "meta_inclination": 74.0194,
        "meta_ra_of_asc_node": 2.8863,
        "meta_arg_of_pericenter": 155.4568,
        "meta_mean_anomaly": 271.1563,
        "meta_ephemeris_type": 0,
        "meta_classification_type": "U",
        "meta_norad_cat_id": 33900,
        "meta_element_set_no": 999,
        "meta_rev_at_epoch": 89013,
        "meta_bstar": 0.00057514727,
        "meta_mean_motion_dot": 2.673e-05,
        "meta_mean_motion_ddot": 0,
        "tle_line1": "1 33900U 93036DD  25345.15296370  .00002673  00000+0  57515-3 0  9991",
        "tle_line2": "2 33900  74.0194   2.8863 0046938 155.4568 271.1563 14.58337683890137"
      },
      "geometry": {
        "type": "Point",
        "coordinates": [
          171.96522666737172,
          31.484938980647286
        ]
      }
    }
  ]
}